IRIDIUM 112             
1 41925U 17003J   23271.60660040 -.00000085  00000+0 -37322-4 0  9994
2 41925  86.3987 143.1646 0002178  90.1584 269.9862 14.34216688351008
IRIDIUM 111             
1 41926U 17003K   23271.59391035  .00000439  00000+0  14977-3 0  9999
2 41926  86.3989 143.2193 0002238  77.5810 282.5637 14.34221915350983
IRIDIUM 113             
1 42803U 17039A   23271.36457389  .00000015  00000+0 -17005-5 0  9991
2 42803  86.4031  17.0393 0002246  91.8823 268.2630 14.34219293328883
IRIDIUM 123             
1 42804U 17039B   23271.47582212 -.00000392  00000+0 -14705-3 0  9999
2 42804  86.3970  48.4881 0002311  91.1582 268.9878 14.34216463327665
IRIDIUM 120             
1 42805U 17039C   23271.35822584  .00000591  00000+0  20397-3 0  9999
2 42805  86.4015  16.9521 0002083  90.2252 269.9183 14.34214651328879
IRIDIUM 115             
1 42806U 17039D   23271.37286533  .00000778  00000+0  22499-3 0  9992
2 42806  86.4557  16.9348 0002356  86.3401 273.8069 14.43333736331061
IRIDIUM 118             
1 42807U 17039E   23271.43776614  .00000006  00000+0 -47519-5 0  9991
2 42807  86.3969  48.5057 0002094  92.2854 267.8582 14.34216795327651
IRIDIUM 117             
1 42808U 17039F   23271.45678230  .00000504  00000+0  17281-3 0  9992
2 42808  86.3971  48.4649 0002182  90.6954 269.4492 14.34223533327681
