<?xml version="1.0" encoding="UTF-8"?>
<ndm xmlns:xsi="http://www.w3.org/2001/XMLSchema-instance" xsi:noNamespaceSchemaLocation="https://sanaregistry.org/r/ndmxml_unqualified/ndmxml-2.0.0-master-2.0.xsd">
<omm id="CCSDS_OMM_VERS" version="2.0">
<header><CREATION_DATE/><ORIGINATOR/></header><body><segment><metadata><OBJECT_NAME>IRIDIUM 112</OBJECT_NAME><OBJECT_ID>2017-003J</OBJECT_ID><CENTER_NAME>EARTH</CENTER_NAME><REF_FRAME>TEME</REF_FRAME><TIME_SYSTEM>UTC</TIME_SYSTEM><MEAN_ELEMENT_THEORY>SGP4</MEAN_ELEMENT_THEORY></metadata><data><meanElements><EPOCH>2023-09-28T14:33:30.274560</EPOCH><MEAN_MOTION>14.34216688</MEAN_MOTION><ECCENTRICITY>.0002178</ECCENTRICITY><INCLINATION>86.3987</INCLINATION><RA_OF_ASC_NODE>143.1646</RA_OF_ASC_NODE><ARG_OF_PERICENTER>90.1584</ARG_OF_PERICENTER><MEAN_ANOMALY>269.9862</MEAN_ANOMALY></meanElements><tleParameters><EPHEMERIS_TYPE>0</EPHEMERIS_TYPE><CLASSIFICATION_TYPE>U</CLASSIFICATION_TYPE><NORAD_CAT_ID>41925</NORAD_CAT_ID><ELEMENT_SET_NO>999</ELEMENT_SET_NO><REV_AT_EPOCH>35100</REV_AT_EPOCH><BSTAR>-.37322E-4</BSTAR><MEAN_MOTION_DOT>-.85E-6</MEAN_MOTION_DOT><MEAN_MOTION_DDOT>0</MEAN_MOTION_DDOT></tleParameters></data></segment></body></omm>
<omm id="CCSDS_OMM_VERS" version="2.0">
<header><CREATION_DATE/><ORIGINATOR/></header><body><segment><metadata><OBJECT_NAME>IRIDIUM 111</OBJECT_NAME><OBJECT_ID>2017-003K</OBJECT_ID><CENTER_NAME>EARTH</CENTER_NAME><REF_FRAME>TEME</REF_FRAME><TIME_SYSTEM>UTC</TIME_SYSTEM><MEAN_ELEMENT_THEORY>SGP4</MEAN_ELEMENT_THEORY></metadata><data><meanElements><EPOCH>2023-09-28T14:15:13.854240</EPOCH><MEAN_MOTION>14.34221915</MEAN_MOTION><ECCENTRICITY>.0002238</ECCENTRICITY><INCLINATION>86.3989</INCLINATION><RA_OF_ASC_NODE>143.2193</RA_OF_ASC_NODE><ARG_OF_PERICENTER>77.5810</ARG_OF_PERICENTER><MEAN_ANOMALY>282.5637</MEAN_ANOMALY></meanElements><tleParameters><EPHEMERIS_TYPE>0</EPHEMERIS_TYPE><CLASSIFICATION_TYPE>U</CLASSIFICATION_TYPE><NORAD_CAT_ID>41926</NORAD_CAT_ID><ELEMENT_SET_NO>999</ELEMENT_SET_NO><REV_AT_EPOCH>35098</REV_AT_EPOCH><BSTAR>.14977E-3</BSTAR><MEAN_MOTION_DOT>.439E-5</MEAN_MOTION_DOT><MEAN_MOTION_DDOT>0</MEAN_MOTION_DDOT></tleParameters></data></segment></body></omm>
<omm id="CCSDS_OMM_VERS" version="2.0">
<header><CREATION_DATE/><ORIGINATOR/></header><body><segment><metadata><OBJECT_NAME>IRIDIUM 113</OBJECT_NAME><OBJECT_ID>2017-039A</OBJECT_ID><CENTER_NAME>EARTH</CENTER_NAME><REF_FRAME>TEME</REF_FRAME><TIME_SYSTEM>UTC</TIME_SYSTEM><MEAN_ELEMENT_THEORY>SGP4</MEAN_ELEMENT_THEORY></metadata><data><meanElements><EPOCH>2023-09-28T08:44:59.184096</EPOCH><MEAN_MOTION>14.34219293</MEAN_MOTION><ECCENTRICITY>.0002246</ECCENTRICITY><INCLINATION>86.4031</INCLINATION><RA_OF_ASC_NODE>17.0393</RA_OF_ASC_NODE><ARG_OF_PERICENTER>91.8823</ARG_OF_PERICENTER><MEAN_ANOMALY>268.2630</MEAN_ANOMALY></meanElements><tleParameters><EPHEMERIS_TYPE>0</EPHEMERIS_TYPE><CLASSIFICATION_TYPE>U</CLASSIFICATION_TYPE><NORAD_CAT_ID>42803</NORAD_CAT_ID><ELEMENT_SET_NO>999</ELEMENT_SET_NO><REV_AT_EPOCH>32888</REV_AT_EPOCH><BSTAR>-.17005E-5</BSTAR><MEAN_MOTION_DOT>.15E-6</MEAN_MOTION_DOT><MEAN_MOTION_DDOT>0</MEAN_MOTION_DDOT></tleParameters></data></segment></body></omm>
<omm id="CCSDS_OMM_VERS" version="2.0">
<header><CREATION_DATE/><ORIGINATOR/></header><body><segment><metadata><OBJECT_NAME>IRIDIUM 123</OBJECT_NAME><OBJECT_ID>2017-039B</OBJECT_ID><CENTER_NAME>EARTH</CENTER_NAME><REF_FRAME>TEME</REF_FRAME><TIME_SYSTEM>UTC</TIME_SYSTEM><MEAN_ELEMENT_THEORY>SGP4</MEAN_ELEMENT_THEORY></metadata><data><meanElements><EPOCH>2023-09-28T11:25:11.031168</EPOCH><MEAN_MOTION>14.34216463</MEAN_MOTION><ECCENTRICITY>.0002311</ECCENTRICITY><INCLINATION>86.3970</INCLINATION><RA_OF_ASC_NODE>48.4881</RA_OF_ASC_NODE><ARG_OF_PERICENTER>91.1582</ARG_OF_PERICENTER><MEAN_ANOMALY>268.9878</MEAN_ANOMALY></meanElements><tleParameters><EPHEMERIS_TYPE>0</EPHEMERIS_TYPE><CLASSIFICATION_TYPE>U</CLASSIFICATION_TYPE><NORAD_CAT_ID>42804</NORAD_CAT_ID><ELEMENT_SET_NO>999</ELEMENT_SET_NO><REV_AT_EPOCH>32766</REV_AT_EPOCH><BSTAR>-.14705E-3</BSTAR><MEAN_MOTION_DOT>-.392E-5</MEAN_MOTION_DOT><MEAN_MOTION_DDOT>0</MEAN_MOTION_DDOT></tleParameters></data></segment></body></omm>
<omm id="CCSDS_OMM_VERS" version="2.0">
<header><CREATION_DATE/><ORIGINATOR/></header><body><segment><metadata><OBJECT_NAME>IRIDIUM 120</OBJECT_NAME><OBJECT_ID>2017-039C</OBJECT_ID><CENTER_NAME>EARTH</CENTER_NAME><REF_FRAME>TEME</REF_FRAME><TIME_SYSTEM>UTC</TIME_SYSTEM><MEAN_ELEMENT_THEORY>SGP4</MEAN_ELEMENT_THEORY></metadata><data><meanElements><EPOCH>2023-09-28T08:35:50.712576</EPOCH><MEAN_MOTION>14.34214651</MEAN_MOTION><ECCENTRICITY>.0002083</ECCENTRICITY><INCLINATION>86.4015</INCLINATION><RA_OF_ASC_NODE>16.9521</RA_OF_ASC_NODE><ARG_OF_PERICENTER>90.2252</ARG_OF_PERICENTER><MEAN_ANOMALY>269.9183</MEAN_ANOMALY></meanElements><tleParameters><EPHEMERIS_TYPE>0</EPHEMERIS_TYPE><CLASSIFICATION_TYPE>U</CLASSIFICATION_TYPE><NORAD_CAT_ID>42805</NORAD_CAT_ID><ELEMENT_SET_NO>999</ELEMENT_SET_NO><REV_AT_EPOCH>32887</REV_AT_EPOCH><BSTAR>.20397E-3</BSTAR><MEAN_MOTION_DOT>.591E-5</MEAN_MOTION_DOT><MEAN_MOTION_DDOT>0</MEAN_MOTION_DDOT></tleParameters></data></segment></body></omm>
<omm id="CCSDS_OMM_VERS" version="2.0">
<header><CREATION_DATE/><ORIGINATOR/></header><body><segment><metadata><OBJECT_NAME>IRIDIUM 115</OBJECT_NAME><OBJECT_ID>2017-039D</OBJECT_ID><CENTER_NAME>EARTH</CENTER_NAME><REF_FRAME>TEME</REF_FRAME><TIME_SYSTEM>UTC</TIME_SYSTEM><MEAN_ELEMENT_THEORY>SGP4</MEAN_ELEMENT_THEORY></metadata><data><meanElements><EPOCH>2023-09-28T08:56:55.564512</EPOCH><MEAN_MOTION>14.43333736</MEAN_MOTION><ECCENTRICITY>.0002356</ECCENTRICITY><INCLINATION>86.4557</INCLINATION><RA_OF_ASC_NODE>16.9348</RA_OF_ASC_NODE><ARG_OF_PERICENTER>86.3401</ARG_OF_PERICENTER><MEAN_ANOMALY>273.8069</MEAN_ANOMALY></meanElements><tleParameters><EPHEMERIS_TYPE>0</EPHEMERIS_TYPE><CLASSIFICATION_TYPE>U</CLASSIFICATION_TYPE><NORAD_CAT_ID>42806</NORAD_CAT_ID><ELEMENT_SET_NO>999</ELEMENT_SET_NO><REV_AT_EPOCH>33106</REV_AT_EPOCH><BSTAR>.22499E-3</BSTAR><MEAN_MOTION_DOT>.778E-5</MEAN_MOTION_DOT><MEAN_MOTION_DDOT>0</MEAN_MOTION_DDOT></tleParameters></data></segment></body></omm>
<omm id="CCSDS_OMM_VERS" version="2.0">
<header><CREATION_DATE/><ORIGINATOR/></header><body><segment><metadata><OBJECT_NAME>IRIDIUM 118</OBJECT_NAME><OBJECT_ID>2017-039E</OBJECT_ID><CENTER_NAME>EARTH</CENTER_NAME><REF_FRAME>TEME</REF_FRAME><TIME_SYSTEM>UTC</TIME_SYSTEM><MEAN_ELEMENT_THEORY>SGP4</MEAN_ELEMENT_THEORY></metadata><data><meanElements><EPOCH>2023-09-28T10:30:22.994496</EPOCH><MEAN_MOTION>14.34216795</MEAN_MOTION><ECCENTRICITY>.0002094</ECCENTRICITY><INCLINATION>86.3969</INCLINATION><RA_OF_ASC_NODE>48.5057</RA_OF_ASC_NODE><ARG_OF_PERICENTER>92.2854</ARG_OF_PERICENTER><MEAN_ANOMALY>267.8582</MEAN_ANOMALY></meanElements><tleParameters><EPHEMERIS_TYPE>0</EPHEMERIS_TYPE><CLASSIFICATION_TYPE>U</CLASSIFICATION_TYPE><NORAD_CAT_ID>42807</NORAD_CAT_ID><ELEMENT_SET_NO>999</ELEMENT_SET_NO><REV_AT_EPOCH>32765</REV_AT_EPOCH><BSTAR>-.47519E-5</BSTAR><MEAN_MOTION_DOT>.6E-7</MEAN_MOTION_DOT><MEAN_MOTION_DDOT>0</MEAN_MOTION_DDOT></tleParameters></data></segment></body></omm>
<omm id="CCSDS_OMM_VERS" version="2.0">
<header><CREATION_DATE/><ORIGINATOR/></header><body><segment><metadata><OBJECT_NAME>IRIDIUM 117</OBJECT_NAME><OBJECT_ID>2017-039F</OBJECT_ID><CENTER_NAME>EARTH</CENTER_NAME><REF_FRAME>TEME</REF_FRAME><TIME_SYSTEM>UTC</TIME_SYSTEM><MEAN_ELEMENT_THEORY>SGP4</MEAN_ELEMENT_THEORY></metadata><data><meanElements><EPOCH>2023-09-28T10:57:45.990720</EPOCH><MEAN_MOTION>14.34223533</MEAN_MOTION><ECCENTRICITY>.0002182</ECCENTRICITY><INCLINATION>86.3971</INCLINATION><RA_OF_ASC_NODE>48.4649</RA_OF_ASC_NODE><ARG_OF_PERICENTER>90.6954</ARG_OF_PERICENTER><MEAN_ANOMALY>269.4492</MEAN_ANOMALY></meanElements><tleParameters><EPHEMERIS_TYPE>0</EPHEMERIS_TYPE><CLASSIFICATION_TYPE>U</CLASSIFICATION_TYPE><NORAD_CAT_ID>42808</NORAD_CAT_ID><ELEMENT_SET_NO>999</ELEMENT_SET_NO><REV_AT_EPOCH>32768</REV_AT_EPOCH><BSTAR>.17281E-3</BSTAR><MEAN_MOTION_DOT>.504E-5</MEAN_MOTION_DOT><MEAN_MOTION_DDOT>0</MEAN_MOTION_DDOT></tleParameters></data></segment></body></omm>

</ndm>
